SL-16 R/B               
1 25400U 98043G   25343.14982281  .00000142  00000+0  78276-4 0  9997
2 25400  98.8119 290.9479 0008821 278.4507  81.5672 14.26024108426088
SL-16 R/B               
1 25407U 98045B   25343.16238057 -.00000136  00000+0 -44768-4 0  9997
2 25407  71.0123  11.9504 0007110 183.3213 176.7864 14.16175894414288
ISS (ZARYA)             
1 25544U 98067A   25342.86487848  .00012323  00000+0  22804-3 0  9998
2 25544  51.6308 161.6653 0003381 221.9847 138.0883 15.49428834542258
CZ-4B R/B               
1 25732U 99025C   25343.14169012  .00000111  00000+0  74698-4 0  9995
2 25732  98.6772  24.5021 0036186 244.6122 128.1755 14.18242116375339
OKEAN-O                 
1 25860U 99039A   25343.13909266  .00001190  00000+0  16363-3 0  9996
2 25860  97.9606  38.8718 0000791  90.1743 269.9559 14.80151028420995
SL-16 R/B               
1 25861U 99039B   25343.13763400  .00000997  00000+0  13359-3 0  9991
2 25861  98.0129  37.2885 0014643 186.4383 173.6643 14.81577920423459
DELTA 2 R/B             
1 25876U 99041E   25343.10227774  .00001223  00000+0  23672-3 0  9998
2 25876  51.7619 302.9662 0504751  81.0451 284.7245 14.11385999350233
HELIOS 1B               
1 25977U 99064A   25343.17046351  .00002573  00000+0  29199-3 0  9991
2 25977  98.1753 237.7302 0001894  47.5321 312.6054 14.87257588671801
TERRA                   
1 25994U 99068A   25342.90928448  .00000788  00000+0  17004-3 0  9998
2 25994  97.9753  34.7344 0003528 105.4870  11.8952 14.60945359381823
SL-16 R/B               
1 26070U 00006B   25343.15430764  .00000039  00000+0  44233-4 0  9999
2 26070  71.0033 288.1958 0018328 313.5841  46.3760 14.15810479335747
TITAN 4B R/B            
1 26474U 00047B   25343.16318353  .00004617  00000+0  29660-3 0  9994
2 26474  67.9903 294.8993 0039205 148.9147 211.4333 15.08737396379258
ENVISAT                 
1 27386U 02009A   25343.14168772  .00000232  00000+0  89014-4 0  9992
2 27386  98.3594 293.9735 0001144  81.9813 292.3991 14.38997008246156
