CCSDS_OMM_VERS = 2.0
CREATION_DATE  = 
ORIGINATOR     = 

OBJECT_NAME    = SL-16 R/B
OBJECT_ID      = 1998-043G
CENTER_NAME    = EARTH
REF_FRAME      = TEME
TIME_SYSTEM    = UTC
MEAN_ELEMENT_THEORY = SGP/SGP4

EPOCH          = 2025-12-09T03:35:44.690784
MEAN_MOTION    = 14.26024108
ECCENTRICITY   = .0008821
INCLINATION    = 98.8119
RA_OF_ASC_NODE = 290.9479
ARG_OF_PERICENTER = 278.4507
MEAN_ANOMALY   = 81.5672

EPHEMERIS_TYPE = 0
CLASSIFICATION_TYPE = U
NORAD_CAT_ID   = 25400
ELEMENT_SET_NO = 999
REV_AT_EPOCH   = 42608
BSTAR          = .78276E-4
MEAN_MOTION_DOT = .142E-5
MEAN_MOTION_DDOT = 0

CCSDS_OMM_VERS = 2.0
CREATION_DATE  = 
ORIGINATOR     = 

OBJECT_NAME    = SL-16 R/B
OBJECT_ID      = 1998-045B
CENTER_NAME    = EARTH
REF_FRAME      = TEME
TIME_SYSTEM    = UTC
MEAN_ELEMENT_THEORY = SGP/SGP4

EPOCH          = 2025-12-09T03:53:49.681248
MEAN_MOTION    = 14.16175894
ECCENTRICITY   = .000711
INCLINATION    = 71.0123
RA_OF_ASC_NODE = 11.9504
ARG_OF_PERICENTER = 183.3213
MEAN_ANOMALY   = 176.7864

EPHEMERIS_TYPE = 0
CLASSIFICATION_TYPE = U
NORAD_CAT_ID   = 25407
ELEMENT_SET_NO = 999
REV_AT_EPOCH   = 41428
BSTAR          = -.44768E-4
MEAN_MOTION_DOT = -.136E-5
MEAN_MOTION_DDOT = 0

CCSDS_OMM_VERS = 2.0
CREATION_DATE  = 
ORIGINATOR     = 

OBJECT_NAME    = ISS (ZARYA)
OBJECT_ID      = 1998-067A
CENTER_NAME    = EARTH
REF_FRAME      = TEME
TIME_SYSTEM    = UTC
MEAN_ELEMENT_THEORY = SGP/SGP4

EPOCH          = 2025-12-08T20:45:25.500672
MEAN_MOTION    = 15.49428834
ECCENTRICITY   = .0003381
INCLINATION    = 51.6308
RA_OF_ASC_NODE = 161.6653
ARG_OF_PERICENTER = 221.9847
MEAN_ANOMALY   = 138.0883

EPHEMERIS_TYPE = 0
CLASSIFICATION_TYPE = U
NORAD_CAT_ID   = 25544
ELEMENT_SET_NO = 999
REV_AT_EPOCH   = 54225
BSTAR          = .22804E-3
MEAN_MOTION_DOT = .12323E-3
MEAN_MOTION_DDOT = 0

CCSDS_OMM_VERS = 2.0
CREATION_DATE  = 
ORIGINATOR     = 

OBJECT_NAME    = CZ-4B R/B
OBJECT_ID      = 1999-025C
CENTER_NAME    = EARTH
REF_FRAME      = TEME
TIME_SYSTEM    = UTC
MEAN_ELEMENT_THEORY = SGP/SGP4

EPOCH          = 2025-12-09T03:24:02.026368
MEAN_MOTION    = 14.18242116
ECCENTRICITY   = .0036186
INCLINATION    = 98.6772
RA_OF_ASC_NODE = 24.5021
ARG_OF_PERICENTER = 244.6122
MEAN_ANOMALY   = 128.1755

EPHEMERIS_TYPE = 0
CLASSIFICATION_TYPE = U
NORAD_CAT_ID   = 25732
ELEMENT_SET_NO = 999
REV_AT_EPOCH   = 37533
BSTAR          = .74698E-4
MEAN_MOTION_DOT = .111E-5
MEAN_MOTION_DDOT = 0

CCSDS_OMM_VERS = 2.0
CREATION_DATE  = 
ORIGINATOR     = 

OBJECT_NAME    = OKEAN-O
OBJECT_ID      = 1999-039A
CENTER_NAME    = EARTH
REF_FRAME      = TEME
TIME_SYSTEM    = UTC
MEAN_ELEMENT_THEORY = SGP/SGP4

EPOCH          = 2025-12-09T03:20:17.605824
MEAN_MOTION    = 14.80151028
ECCENTRICITY   = .0000791
INCLINATION    = 97.9606
RA_OF_ASC_NODE = 38.8718
ARG_OF_PERICENTER = 90.1743
MEAN_ANOMALY   = 269.9559

EPHEMERIS_TYPE = 0
CLASSIFICATION_TYPE = U
NORAD_CAT_ID   = 25860
ELEMENT_SET_NO = 999
REV_AT_EPOCH   = 42099
BSTAR          = .16363E-3
MEAN_MOTION_DOT = .119E-4
MEAN_MOTION_DDOT = 0

CCSDS_OMM_VERS = 2.0
CREATION_DATE  = 
ORIGINATOR     = 

OBJECT_NAME    = SL-16 R/B
OBJECT_ID      = 1999-039B
CENTER_NAME    = EARTH
REF_FRAME      = TEME
TIME_SYSTEM    = UTC
MEAN_ELEMENT_THEORY = SGP/SGP4

EPOCH          = 2025-12-09T03:18:11.577600
MEAN_MOTION    = 14.81577920
ECCENTRICITY   = .0014643
INCLINATION    = 98.0129
RA_OF_ASC_NODE = 37.2885
ARG_OF_PERICENTER = 186.4383
MEAN_ANOMALY   = 173.6643

EPHEMERIS_TYPE = 0
CLASSIFICATION_TYPE = U
NORAD_CAT_ID   = 25861
ELEMENT_SET_NO = 999
REV_AT_EPOCH   = 42345
BSTAR          = .13359E-3
MEAN_MOTION_DOT = .997E-5
MEAN_MOTION_DDOT = 0

CCSDS_OMM_VERS = 2.0
CREATION_DATE  = 
ORIGINATOR     = 

OBJECT_NAME    = DELTA 2 R/B
OBJECT_ID      = 1999-041E
CENTER_NAME    = EARTH
REF_FRAME      = TEME
TIME_SYSTEM    = UTC
MEAN_ELEMENT_THEORY = SGP/SGP4

EPOCH          = 2025-12-09T02:27:16.796736
MEAN_MOTION    = 14.11385999
ECCENTRICITY   = .0504751
INCLINATION    = 51.7619
RA_OF_ASC_NODE = 302.9662
ARG_OF_PERICENTER = 81.0451
MEAN_ANOMALY   = 284.7245

EPHEMERIS_TYPE = 0
CLASSIFICATION_TYPE = U
NORAD_CAT_ID   = 25876
ELEMENT_SET_NO = 999
REV_AT_EPOCH   = 35023
BSTAR          = .23672E-3
MEAN_MOTION_DOT = .1223E-4
MEAN_MOTION_DDOT = 0

CCSDS_OMM_VERS = 2.0
CREATION_DATE  = 
ORIGINATOR     = 

OBJECT_NAME    = HELIOS 1B
OBJECT_ID      = 1999-064A
CENTER_NAME    = EARTH
REF_FRAME      = TEME
TIME_SYSTEM    = UTC
MEAN_ELEMENT_THEORY = SGP/SGP4

EPOCH          = 2025-12-09T04:05:28.047264
MEAN_MOTION    = 14.87257588
ECCENTRICITY   = .0001894
INCLINATION    = 98.1753
RA_OF_ASC_NODE = 237.7302
ARG_OF_PERICENTER = 47.5321
MEAN_ANOMALY   = 312.6054

EPHEMERIS_TYPE = 0
CLASSIFICATION_TYPE = U
NORAD_CAT_ID   = 25977
ELEMENT_SET_NO = 999
REV_AT_EPOCH   = 67180
BSTAR          = .29199E-3
MEAN_MOTION_DOT = .2573E-4
MEAN_MOTION_DDOT = 0

CCSDS_OMM_VERS = 2.0
CREATION_DATE  = 
ORIGINATOR     = 

OBJECT_NAME    = TERRA
OBJECT_ID      = 1999-068A
CENTER_NAME    = EARTH
REF_FRAME      = TEME
TIME_SYSTEM    = UTC
MEAN_ELEMENT_THEORY = SGP/SGP4

EPOCH          = 2025-12-08T21:49:22.179072
MEAN_MOTION    = 14.60945359
ECCENTRICITY   = .0003528
INCLINATION    = 97.9753
RA_OF_ASC_NODE = 34.7344
ARG_OF_PERICENTER = 105.4870
MEAN_ANOMALY   = 11.8952

EPHEMERIS_TYPE = 0
CLASSIFICATION_TYPE = U
NORAD_CAT_ID   = 25994
ELEMENT_SET_NO = 999
REV_AT_EPOCH   = 38182
BSTAR          = .17004E-3
MEAN_MOTION_DOT = .788E-5
MEAN_MOTION_DDOT = 0

CCSDS_OMM_VERS = 2.0
CREATION_DATE  = 
ORIGINATOR     = 

OBJECT_NAME    = SL-16 R/B
OBJECT_ID      = 2000-006B
CENTER_NAME    = EARTH
REF_FRAME      = TEME
TIME_SYSTEM    = UTC
MEAN_ELEMENT_THEORY = SGP/SGP4

EPOCH          = 2025-12-09T03:42:12.180096
MEAN_MOTION    = 14.15810479
ECCENTRICITY   = .0018328
INCLINATION    = 71.0033
RA_OF_ASC_NODE = 288.1958
ARG_OF_PERICENTER = 313.5841
MEAN_ANOMALY   = 46.3760

EPHEMERIS_TYPE = 0
CLASSIFICATION_TYPE = U
NORAD_CAT_ID   = 26070
ELEMENT_SET_NO = 999
REV_AT_EPOCH   = 33574
BSTAR          = .44233E-4
MEAN_MOTION_DOT = .39E-6
MEAN_MOTION_DDOT = 0

CCSDS_OMM_VERS = 2.0
CREATION_DATE  = 
ORIGINATOR     = 

OBJECT_NAME    = TITAN 4B R/B
OBJECT_ID      = 2000-047B
CENTER_NAME    = EARTH
REF_FRAME      = TEME
TIME_SYSTEM    = UTC
MEAN_ELEMENT_THEORY = SGP/SGP4

EPOCH          = 2025-12-09T03:54:59.056992
MEAN_MOTION    = 15.08737396
ECCENTRICITY   = .0039205
INCLINATION    = 67.9903
RA_OF_ASC_NODE = 294.8993
ARG_OF_PERICENTER = 148.9147
MEAN_ANOMALY   = 211.4333

EPHEMERIS_TYPE = 0
CLASSIFICATION_TYPE = U
NORAD_CAT_ID   = 26474
ELEMENT_SET_NO = 999
REV_AT_EPOCH   = 37925
BSTAR          = .2966E-3
MEAN_MOTION_DOT = .4617E-4
MEAN_MOTION_DDOT = 0

CCSDS_OMM_VERS = 2.0
CREATION_DATE  = 
ORIGINATOR     = 

OBJECT_NAME    = ENVISAT
OBJECT_ID      = 2002-009A
CENTER_NAME    = EARTH
REF_FRAME      = TEME
TIME_SYSTEM    = UTC
MEAN_ELEMENT_THEORY = SGP/SGP4

EPOCH          = 2025-12-09T03:24:01.819008
MEAN_MOTION    = 14.38997008
ECCENTRICITY   = .0001144
INCLINATION    = 98.3594
RA_OF_ASC_NODE = 293.9735
ARG_OF_PERICENTER = 81.9813
MEAN_ANOMALY   = 292.3991

EPHEMERIS_TYPE = 0
CLASSIFICATION_TYPE = U
NORAD_CAT_ID   = 27386
ELEMENT_SET_NO = 999
REV_AT_EPOCH   = 24615
BSTAR          = .89014E-4
MEAN_MOTION_DOT = .232E-5
MEAN_MOTION_DDOT = 0

